IRIDIUM 155             
1 43573U 18061E   26001.78294604 -.00000083  00000+0 -36690-4 0  9997
2 43573  86.3989 126.2641 0002089  97.7469 262.3964 14.34216664389504
IRIDIUM 154             
1 43574U 18061F   26001.76391734  .00000029  00000+0  33970-5 0  9995
2 43574  86.3991 126.3972 0002012  94.7422 265.4004 14.34217609389552
IRIDIUM 163             
1 43575U 18061G   26002.16350042  .00000046  00000+0  93364-5 0  9990
2 43575  86.3991 126.1510 0002000 100.7381 259.4040 14.34217773389586
IRIDIUM 156             
1 43576U 18061H   26001.78928843 -.00000025  00000+0 -16042-4 0  9994
2 43576  86.3994 126.3146 0002171  97.9574 262.1869 14.34217234389523
IRIDIUM 164             
1 43577U 18061J   26001.77026059 -.00000154  00000+0 -61924-4 0  9994
2 43577  86.3994 126.3601 0001886  91.0244 269.1168 14.34216868389566
IRIDIUM 159             
1 43578U 18061K   26001.87808392  .00000047  00000+0  97960-5 0  9993
2 43578  86.3989 126.2546 0001910  96.0779 264.0635 14.34216887389546
IRIDIUM 180             
1 43922U 19002A   26002.15665044  .00000181  00000+0  57420-4 0  9994
2 43922  86.3948  63.0041 0001999  95.9515 264.1908 14.34216240365197
IRIDIUM 176             
1 43923U 19002B   26002.18185225  .00001687  00000+0  26367-3 0  9993
2 43923  86.6070  62.9613 0002348 101.4386 258.7095 14.72242893374829
IRIDIUM 168             
1 43924U 19002C   26002.15031182  .00000087  00000+0  24108-4 0  9998
2 43924  86.3952  63.0795 0002196  97.6399 262.5046 14.34218037365178
IRIDIUM 173             
1 43925U 19002D   26002.13763248  .00000462  00000+0  15788-3 0  9992
2 43925  86.3948  62.9803 0002265  99.6143 260.5309 14.34218019365156
IRIDIUM 169             
1 43926U 19002E   26002.15306374  .00000622  00000+0  19685-3 0  9996
2 43926  86.4224  94.6297 0002925 111.1712 248.9799 14.38606625366353
IRIDIUM 172             
1 43927U 19002F   26002.13128373  .00000082  00000+0  22303-4 0  9998
2 43927  86.3946  62.9902 0002021  96.6888 263.4538 14.34217976365167
IRIDIUM 175             
1 43928U 19002G   26002.04119089  .00001896  00000+0  29686-3 0  9997
2 43928  86.1497   4.2779 0003078  78.3386 281.8176 14.72222766374797
IRIDIUM 171             
1 43929U 19002H   26002.11225684  .00000128  00000+0  38798-4 0  9997
2 43929  86.3956  63.2862 0002390  93.2576 266.8893 14.34218169365150
IRIDIUM 170             
1 43930U 19002J   26002.12004010  .00001048  00000+0  16235-3 0  9991
2 43930  86.6070  62.9904 0002318  88.1474 272.0008 14.72236522374821
IRIDIUM 167             
1 43931U 19002K   26002.10591513  .00000015  00000+0 -18731-5 0  9998
2 43931  86.3944  63.0215 0002558  94.2146 265.9342 14.34217489365153
IRIDIUM 181             
1 56726U 23068S   26001.78523399  .00000715  00000+0  20637-3 0  9993
2 56726  86.4529 126.3552 0001792  83.7498 276.3907 14.43309411138437
IRIDIUM 177             
1 56727U 23068T   26002.09021731  .00001196  00000+0  15395-3 0  9991
2 56727  86.1947  47.6623 0002252  89.6412 270.5067 14.80215188141790
IRIDIUM 174             
1 56728U 23068U   26002.10770054  .00001453  00000+0  22657-3 0  9998
2 56728  86.6074  63.1263 0002164  92.0194 268.1271 14.72243990141587
IRIDIUM 178             
1 56729U 23068V   26001.74125945  .00002224  00000+0  28959-3 0  9999
2 56729  86.6558  94.9421 0002689  81.1361 279.0165 14.80190031141747
IRIDIUM 179             
1 56730U 23068W   26001.73595086  .00003190  00000+0  41642-3 0  9994
2 56730  86.6790 103.4301 0002441  92.9943 267.1558 14.80224638141747
